[{"OBJECT_NAME":"LEMUR-2-ANDIS","OBJECT_ID":"2017-042P","EPOCH":"2026-03-09T13:25:33.116448","MEAN_MOTION":15.30557934,"ECCENTRICITY":0.0009101,"INCLINATION":97.3659,"RA_OF_ASC_NODE":249.795,"ARG_OF_PERICENTER":4.3248,"MEAN_ANOMALY":355.807,"EPHEMERIS_TYPE":0,"CLASSIFICATION_TYPE":"U","NORAD_CAT_ID":42838,"ELEMENT_SET_NO":999,"REV_AT_EPOCH":47319,"BSTAR":0.00079875,"MEAN_MOTION_DOT":0.00023598,"MEAN_MOTION_DDOT":0},{"OBJECT_NAME":"STARLINK-31121","OBJECT_ID":"2023-211U","EPOCH":"2026-03-09T11:01:09.708096","MEAN_MOTION":15.27644877,"ECCENTRICITY":0.00011028,"INCLINATION":42.9995,"RA_OF_ASC_NODE":86.2025,"ARG_OF_PERICENTER":209.0829,"MEAN_ANOMALY":150.9962,"EPHEMERIS_TYPE":0,"CLASSIFICATION_TYPE":"U","NORAD_CAT_ID":58685,"ELEMENT_SET_NO":999,"REV_AT_EPOCH":12243,"BSTAR":-0.0006483732,"MEAN_MOTION_DOT":-0.00018096,"MEAN_MOTION_DDOT":0}]
